[
    {
        "Altitude(m)": 604234.598082861,
        "Argument of Periapsis(deg)": 0.0,
        "Eccentricity": 0.0,
        "Inclination(deg)": 60.0,
        "Latitude(deg)": 14.117172196997986,
        "Longitude(deg)": -23.27269341874282,
        "Mean Anomaly(deg)": -196.36359999999996,
        "RAAN(deg)": 265.0,
        "Satellite Name": "Test1 1176",
        "Satellite Number": 1176,
        "Semi-Major Axis(m)": 6980739.136638005,
        "Time(s)": 0
    },
    {
        "Altitude(m)": 604223.4271123045,
        "Argument of Periapsis(deg)": 0.00010418945913296404,
        "Eccentricity": 0.0,
        "Inclination(deg)": 60.0,
        "Latitude(deg)": 13.582308981069797,
        "Longitude(deg)": -22.98578350134298,
        "Mean Anomaly(deg)": -195.74349385453812,
        "RAAN(deg)": 264.99957995086027,
        "Satellite Name": "Test1 1176",
        "Satellite Number": 1176,
        "Semi-Major Axis(m)": 6980739.136638005,
        "Time(s)": 10
    }
]